NORAD_CAT_ID,OBJECT_NAME,OBJECT_TYPE,EPOCH,MEAN_MOTION,ECCENTRICITY,INCLINATION,RA_OF_ASC_NODE,ARG_OF_PERICENTER,MEAN_ANOMALY,BSTAR,MEAN_MOTION_DOT,MEAN_MOTION_DDOT,TLE_LINE0,TLE_LINE1,TLE_LINE2,SEMIMAJOR_AXIS,PERIOD,APOGEE,PERIGEE,DECAYED
51731.0,STARLINK-3514,PAYLOAD,2024-04-30 07:31:10,15.08844578,0.0001304,53.2175,124.4718,88.3916,271.7225,0.00019047,2.745e-05,0.0,0 STARLINK-3514,1 51731U 22016T   24121.31331337  .00002745  00000-0  19047-3 0  9994,2 51731  53.2175 124.4718 0001304  88.3916 271.7225 15.08844578122261,6917.866,95.437,540.633,538.829,0.0
51731.0,STARLINK-3514,PAYLOAD,2024-04-30 17:03:29,15.08846402,0.0001279,53.217,122.6877,89.5278,270.5861,0.00015551,2.188e-05,0.0,0 STARLINK-3514,1 51731U 22016T   24121.71075243  .00002188  00000-0  15551-3 0  9996,2 51731  53.2170 122.6877 0001279  89.5278 270.5861 15.08846402121212,6917.861,95.437,540.611,538.841,0.0
51731.0,STARLINK-3514,PAYLOAD,2024-05-01 04:11:11,15.08836505,0.0001341,53.2177,120.6062,92.8479,267.2667,6.9538e-05,8.19e-06,0.0,0 STARLINK-3514,1 51731U 22016T   24122.17444115  .00000819  00000-0  69538-4 0  9999,2 51731  53.2177 120.6062 0001341  92.8479 267.2667 15.08836505122393,6917.891,95.438,540.684,538.828,0.0
51731.0,STARLINK-3514,PAYLOAD,2024-05-01 08:57:20,15.08839058,0.0001321,53.2174,119.7137,90.6991,269.4153,6.492e-05,7.45e-06,0.0,0 STARLINK-3514,1 51731U 22016T   24122.37315934  .00000745  00000-0  64920-4 0  9995,2 51731  53.2174 119.7137 0001321  90.6991 269.4153 15.08839058121316,6917.883,95.438,540.662,538.834,0.0
51731.0,STARLINK-3514,PAYLOAD,2024-05-01 16:54:16,15.08844069,0.0001335,53.2174,118.2269,87.999,272.1155,8.1995e-05,1.017e-05,0.0,0 STARLINK-3514,1 51731U 22016T   24122.70435464  .00001017  00000-0  81995-4 0  9997,2 51731  53.2174 118.2269 0001335  87.9990 272.1155 15.08844069122478,6917.868,95.437,540.656,538.809,0.0
51731.0,STARLINK-3514,PAYLOAD,2024-05-02 08:48:07,15.08842109,0.0001397,53.2173,115.2536,91.5286,268.5866,-9.4367e-06,-4.38e-06,0.0,0 STARLINK-3514,1 51731U 22016T   24123.36675710 -.00000438  00000-0 -94367-5 0  9996,2 51731  53.2173 115.2536 0001397  91.5286 268.5866 15.08842109121467,6917.874,95.437,540.705,538.773,0.0
51731.0,STARLINK-3514,PAYLOAD,2024-05-02 16:45:03,15.08823222,0.0001479,53.2171,113.7663,98.8607,261.2553,0.0003203,4.811e-05,0.0,0 STARLINK-3514,1 51731U 22016T   24123.69796210  .00004811  00000-0  32030-3 0  9995,2 51731  53.2171 113.7663 0001479  98.8607 261.2553 15.08823222122624,6917.932,95.439,540.82,538.774,0.0
51731.0,STARLINK-3514,PAYLOAD,2024-05-03 05:28:07,15.08847299,0.0001296,53.2163,111.3871,89.8031,270.311,0.00010739,1.422e-05,0.0,0 STARLINK-3514,1 51731U 22016T   24124.22786886  .00001422  00000-0  10739-3 0  9990,2 51731  53.2163 111.3871 0001296  89.8031 270.3110 15.08847299122707,6917.858,95.437,540.62,538.827,0.0
51731.0,STARLINK-3514,PAYLOAD,2024-05-03 08:38:53,15.0884933,0.0001319,53.2166,110.7916,92.5838,267.5306,0.00013044,1.789e-05,0.0,0 STARLINK-3514,1 51731U 22016T   24124.36034651  .00001789  00000-0  13044-3 0  9999,2 51731  53.2166 110.7916 0001319  92.5838 267.5306 15.08849330121617,6917.852,95.437,540.629,538.804,0.0
51731.0,STARLINK-3514,PAYLOAD,2024-05-03 16:35:49,15.08850023,0.0001319,53.2166,109.3056,89.5795,270.5348,0.00011124,1.483e-05,0.0,0 STARLINK-3514,1 51731U 22016T   24124.69154498  .00001483  00000-0  11124-3 0  9995,2 51731  53.2166 109.3056 0001319  89.5795 270.5348 15.08850023121660,6917.85,95.437,540.627,538.802,0.0
51731.0,STARLINK-3514,PAYLOAD,2024-05-04 05:18:56,15.0882685,0.0001349,53.2168,106.9264,97.9732,262.1413,-1.1587e-05,-4.72e-06,0.0,0 STARLINK-3514,1 51731U 22016T   24125.22148602 -.00000472  00000-0 -11587-4 0  9998,2 51731  53.2168 106.9264 0001349  97.9732 262.1413 15.08826850122856,6917.921,95.438,540.719,538.852,0.0
51731.0,STARLINK-3514,PAYLOAD,2024-05-05 05:09:42,15.08842861,0.0001315,53.2171,102.4661,98.1288,261.9854,6.8843e-05,8.08e-06,0.0,0 STARLINK-3514,1 51731U 22016T   24126.21507917  .00000808  00000-0  68843-4 0  9994,2 51731  53.2171 102.4661 0001315  98.1288 261.9854 15.08842861123008,6917.872,95.437,540.646,538.827,0.0
51731.0,STARLINK-3514,PAYLOAD,2024-05-05 08:20:29,15.08843517,0.0001312,53.2162,101.8715,97.3917,262.7224,8.6489e-05,1.089e-05,0.0,0 STARLINK-3514,1 51731U 22016T   24126.34755920  .00001089  00000-0  86489-4 0  9995,2 51731  53.2162 101.8715 0001312  97.3917 262.7224 15.08843517121915,6917.87,95.437,540.642,538.827,0.0
51731.0,STARLINK-3514,PAYLOAD,2024-05-05 22:38:57,15.08840257,0.0001331,53.2163,99.1951,101.6121,258.5021,0.00034203,5.16e-05,0.0,0 STARLINK-3514,1 51731U 22016T   24126.94372240  .00005160  00000-0  34203-3 0  9991,2 51731  53.2163  99.1951 0001331 101.6121 258.5021 15.08840257122001,6917.88,95.438,540.665,538.824,0.0
51731.0,STARLINK-3514,PAYLOAD,2024-05-06 14:32:48,15.08857829,0.0001331,53.2168,96.222,101.128,258.9862,0.00045096,6.9e-05,0.0,0 STARLINK-3514,1 51731U 22016T   24127.60611427  .00006900  00000-0  45096-3 0  9993,2 51731  53.2168  96.2220 0001331 101.1280 258.9862 15.08857829122105,6917.826,95.436,540.612,538.77,0.0
51731.0,STARLINK-3514,PAYLOAD,2024-05-06 20:54:20,15.08855292,0.000161,53.2192,95.0369,103.0663,257.0509,0.0003173,4.768e-05,0.0,0 STARLINK-3514,1 51731U 22016T   24127.87107423  .00004768  00000-0  31730-3 0  9998,2 51731  53.2192  95.0369 0001610 103.0663 257.0509 15.08855292123256,6917.834,95.437,540.812,538.585,0.0
51731.0,STARLINK-3514,PAYLOAD,2024-05-07 04:51:17,15.08840077,0.0001547,53.2191,93.5488,106.2619,253.8543,-6.1191e-06,-3.85e-06,0.0,0 STARLINK-3514,1 51731U 22016T   24128.20228030 -.00000385  00000-0 -61191-5 0  9993,2 51731  53.2191  93.5488 0001547 106.2619 253.8543 15.08840077123308,6917.88,95.438,540.815,538.675,0.0
51731.0,STARLINK-3514,PAYLOAD,2024-05-07 06:26:40,15.08839926,0.0001557,53.2201,93.2517,104.9122,255.2043,4.68e-05,4.57e-06,0.0,0 STARLINK-3514,1 51731U 22016T   24128.26852280  .00000457  00000-0  46800-4 0  9996,2 51731  53.2201  93.2517 0001557 104.9122 255.2043 15.08839926122205,6917.881,95.438,540.823,538.669,0.0
51731.0,STARLINK-3514,PAYLOAD,2024-05-07 14:23:35,15.08848873,0.0001363,53.2188,91.7629,96.2603,263.8544,0.00010503,1.384e-05,0.0,0 STARLINK-3514,1 51731U 22016T   24128.59971404  .00001384  00000-0  10503-3 0  9992,2 51731  53.2188  91.7629 0001363  96.2603 263.8544 15.08848873123368,6917.853,95.437,540.661,538.775,0.0
51731.0,STARLINK-3514,PAYLOAD,2024-05-08 04:42:04,15.08837118,0.0001438,53.2189,89.0862,88.7174,271.3983,-3.2859e-06,-3.4e-06,0.0,0 STARLINK-3514,1 51731U 22016T   24129.19588693 -.00000340  00000-0 -32859-5 0  9996,2 51731  53.2189  89.0862 0001438  88.7174 271.3983 15.08837118123451,6917.889,95.438,540.749,538.759,0.0
51731.0,STARLINK-3514,PAYLOAD,2024-05-09 06:08:14,15.08846057,0.0001447,53.218,84.3273,82.6714,277.4442,0.00022241,3.254e-05,0.0,0 STARLINK-3514,1 51731U 22016T   24130.25572102  .00003254  00000-0  22241-3 0  9990,2 51731  53.2180  84.3273 0001447  82.6714 277.4442 15.08846057123616,6917.862,95.437,540.728,538.726,0.0
51731.0,STARLINK-3514,PAYLOAD,2024-05-09 14:05:09,15.08855074,0.0001428,53.2175,82.84,76.7989,283.3162,0.00045242,6.923e-05,0.0,0 STARLINK-3514,1 51731U 22016T   24130.58691762  .00006923  00000-0  45242-3 0  9992,2 51731  53.2175  82.8400 0001428  76.7989 283.3162 15.08855074122558,6917.834,95.437,540.687,538.711,0.0
51731.0,STARLINK-3514,PAYLOAD,2024-05-10 04:23:38,15.0884678,0.0001485,53.2177,80.1634,83.5207,276.5954,0.00033514,5.051e-05,0.0,0 STARLINK-3514,1 51731U 22016T   24131.18308277  .00005051  00000-0  33514-3 0  9995,2 51731  53.2177  80.1634 0001485  83.5207 276.5954 15.08846780123752,6917.86,95.437,540.752,538.697,0.0
51731.0,STARLINK-3514,PAYLOAD,2024-05-10 13:55:56,15.08861824,0.0001445,53.2176,78.3809,83.2925,276.8231,0.00077782,0.0001212,0.0,0 STARLINK-3514,1 51731U 22016T   24131.58051795  .00012120  00000-0  77782-3 0  9999,2 51731  53.2176  78.3809 0001445  83.2925 276.8231 15.08861824122705,6917.814,95.436,540.678,538.679,0.0
51731.0,STARLINK-3514,PAYLOAD,2024-05-11 20:08:14,15.08841554,0.0003572,53.2179,72.7313,92.9799,267.1602,-0.00089536,-0.00014513,0.0,0 STARLINK-3514,1 51731U 22016T   24132.83905635 -.00014513  00000-0 -89536-3 0  9999,2 51731  53.2179  72.7313 0003572  92.9799 267.1602 15.08841554124003,6917.876,95.437,542.212,537.27,0.0
51731.0,STARLINK-3514,PAYLOAD,2024-05-12 02:29:48,15.08775571,0.0001365,53.2181,71.5422,108.3371,251.777,0.00089178,0.00013908,0.0,0 STARLINK-3514,1 51731U 22016T   24133.10402960  .00013908  00000-0  89178-3 0  9990,2 51731  53.2181  71.5422 0001365 108.3371 251.7770 15.08775571124044,6918.077,95.442,540.887,538.998,0.0
51731.0,STARLINK-3514,PAYLOAD,2024-05-12 23:09:52,15.08788912,0.0001599,53.2185,67.6764,100.6987,259.4185,0.00089457,0.00013958,0.0,0 STARLINK-3514,1 51731U 22016T   24133.96518671  .00013958  00000-0  89457-3 0  9996,2 51731  53.2185  67.6764 0001599 100.6987 259.4185 15.08788912123069,6918.037,95.441,541.008,538.795,0.0
51731.0,STARLINK-3514,PAYLOAD,2024-05-13 05:31:24,15.08821148,0.0001296,53.2181,66.4868,95.5966,264.5173,0.0015596,0.00024607,0.0,0 STARLINK-3514,1 51731U 22016T   24134.23014866  .00024607  00000-0  15596-2 0  9999,2 51731  53.2181  66.4868 0001296  95.5966 264.5173 15.08821148124211,6917.938,95.439,540.7,538.906,0.0
51731.0,STARLINK-3514,PAYLOAD,2024-05-14 02:11:24,15.0888413,0.0001219,53.2175,62.6199,97.1834,262.9297,0.0019835,0.00031459,0.0,0 STARLINK-3514,1 51731U 22016T   24135.09125861  .00031459  00000-0  19835-2 0  9995,2 51731  53.2175  62.6199 0001219  97.1834 262.9297 15.08884130124349,6917.746,95.435,540.454,538.767,0.0
51731.0,STARLINK-3514,PAYLOAD,2024-05-14 11:43:42,15.08899362,0.0001324,53.218,60.8355,71.3034,288.8102,0.0015847,0.00025064,0.0,0 STARLINK-3514,1 51731U 22016T   24135.48868643  .00025064  00000-0  15847-2 0  9994,2 51731  53.2180  60.8355 0001324  71.3034 288.8102 15.08899362123290,6917.699,95.434,540.48,538.648,0.0
